{"fetched_at":"2026-03-29T16:36:15Z","count":15609,"tles":[{"name":"STARLINK-30813","line1":"1 58213U 23170H   26087.46745322  .00001501  00000+0  65610-4 0  9996","line2":"2 58213  43.0059  87.9812 0001729 277.1224  82.9430 15.26748501133171","category":"Starlink"}]}